NORAD_CAT_ID,OBJECT_NAME,OBJECT_TYPE,EPOCH,MEAN_MOTION,ECCENTRICITY,INCLINATION,RA_OF_ASC_NODE,ARG_OF_PERICENTER,MEAN_ANOMALY,BSTAR,MEAN_MOTION_DOT,MEAN_MOTION_DDOT,TLE_LINE0,TLE_LINE1,TLE_LINE2,SEMIMAJOR_AXIS,PERIOD,APOGEE,PERIGEE,DECAYED
47762,STARLINK-2180,PAYLOAD,2021-04-29 22:00:00,15.06372922,0.0001488,53.0526,273.871,74.5647,84.5149,0.0023606,0.00035029,0.0,0 STARLINK-2180,1 47762U 21017AS  21119.91667824  .00035029  00000-0  23606-2 0  9992,2 47762  53.0526 273.8710 0001488  74.5647  84.5149 15.06372922  1796,6925.432,95.594,548.327,546.266,0.0
47762,STARLINK-2180,PAYLOAD,2021-04-30 12:00:00,15.06406969,0.0001498,53.0521,271.2494,84.2434,359.9968,-0.0011538,-0.00017429,0.0,0 STARLINK-2180,1 47762U 21017AS  21120.50001157 -.00017429  00000-0 -11538-2 0  9997,2 47762  53.0521 271.2494 0001498  84.2434 359.9968 15.06406969  9475,6925.3269999999975,95.592,548.23,546.155,0.0
47762,STARLINK-2180,PAYLOAD,2021-04-30 14:00:01,15.06402774,0.0001496,53.0521,270.8757,83.3732,93.039,-0.00088189,-0.00013394,0.0,0 STARLINK-2180,1 47762U 21017AS  21120.58334491 -.00013394  00000-0 -88189-3 0  9999,2 47762  53.0521 270.8757 0001496  83.3732  93.0390 15.06402774  1894,6925.34,95.592,548.241,546.169,0.0
47762,STARLINK-2180,PAYLOAD,2021-04-30 22:00:00,15.06400997,0.0001413,53.0511,269.3794,89.1643,95.9247,-0.00048522,-7.502e-05,0.0,0 STARLINK-2180,1 47762U 21017AS  21120.91667824 -.00007502  00000-0 -48522-3 0  9996,2 47762  53.0511 269.3794 0001413  89.1643  95.9247 15.06400997  1944,6925.346,95.592,548.189,546.232,0.0
47762,STARLINK-2180,PAYLOAD,2021-05-01 14:00:01,15.06394243,0.0001375,53.051,266.3847,93.6075,108.8377,3.9169e-05,3.02e-06,0.0,0 STARLINK-2180,1 47762U 21017AS  21121.58334491  .00000302  00000-0  39169-4 0  9998,2 47762  53.0510 266.3847 0001375  93.6075 108.8377 15.06394243  9644,6925.366,95.593,548.183,546.279,0.0
47762,STARLINK-2180,PAYLOAD,2021-05-01 22:00:03,15.06394581,0.0001373,53.0511,264.8883,93.4614,117.7842,-4.8629000000000005e-06,-3.54e-06,0.0,0 STARLINK-2180,1 47762U 21017AS  21121.91670139 -.00000354  00000-0 -48629-5 0  9998,2 47762  53.0511 264.8883 0001373  93.4614 117.7842 15.06394581  2096,6925.365,95.592,548.181,546.279,0.0
47762,STARLINK-2180,PAYLOAD,2021-05-02 04:00:00,15.06477841,0.0001619,53.0512,263.7649,87.9146,39.6974,-0.017658,-0.00254617,0.0,0 STARLINK-2180,1 47762U 21017AS  21122.16667824 -.00254617  00000-0 -17658-1 0  9990,2 47762  53.0512 263.7649 0001619  87.9146  39.6974 15.06477841  9722,6925.11,95.587,548.096,545.854,0.0
47762,STARLINK-2180,PAYLOAD,2021-05-02 10:00:01,15.06275329,0.0001951,53.0524,262.6437,82.9229,321.2923,-0.0063098,-0.0009274,0.0,0 STARLINK-2180,1 47762U 21017AS  21122.41668981 -.00092740  00000-0 -63098-2 0  9990,2 47762  53.0524 262.6437 0001951  82.9229 321.2923 15.06275329  9769,6925.731,95.6,548.947,546.244,0.0
47762,STARLINK-2180,PAYLOAD,2021-05-02 14:00:01,15.06435569,0.0001384,53.0531,261.8993,82.1533,146.4187,-0.0049511,-0.00073342,0.0,0 STARLINK-2180,1 47762U 21017AS  21122.58335648 -.00073342  00000-0 -49511-2 0  9990,2 47762  53.0531 261.8993 0001384  82.1533 146.4187 15.06435569  1759,6925.24,95.59,548.063,546.146,0.0
47762,STARLINK-2180,PAYLOAD,2021-05-02 20:00:01,15.06363131,0.0001305,53.0529,260.7777,74.8827,70.2233,0.0030416,0.0004527,0.0,0 STARLINK-2180,1 47762U 21017AS  21122.83335648  .00045270  00000-0  30416-2 0  9999,2 47762  53.0529 260.7777 0001305  74.8827  70.2233 15.06363131  9828,6925.462,95.594,548.23,546.423,0.0
47762,STARLINK-2180,PAYLOAD,2021-05-02 22:00:00,15.06386981,0.000129,53.0527,260.4033,75.6756,161.5256,0.00031055,4.346e-05,0.0,0 STARLINK-2180,1 47762U 21017AS  21122.91667824  .00004346  00000-0  31055-3 0  9992,2 47762  53.0527 260.4033 0001290  75.6756 161.5256 15.06386981  1752,6925.388000000001,95.593,548.1469999999998,546.36,0.0
47762,STARLINK-2180,PAYLOAD,2021-05-03 12:00:00,15.06387825,0.0001312,53.0529,257.7839,89.5527,72.7615,-0.0018835,-0.00028216,0.0,0 STARLINK-2180,1 47762U 21017AS  21123.50001157 -.00028216  00000-0 -18835-2 0  9993,2 47762  53.0529 257.7839 0001312  89.5527  72.7615 15.06387825  9930,6925.386,95.593,548.159,546.342,0.0
47762,STARLINK-2180,PAYLOAD,2021-05-03 14:00:01,15.06380134,0.0001309,53.0526,257.4104,86.2155,168.3247,-0.0016106999999999,-0.00024179,0.0,0 STARLINK-2180,1 47762U 21017AS  21123.58335648 -.00024179  00000-0 -16107-2 0  9990,2 47762  53.0526 257.4104 0001309  86.2155 168.3247 15.06380134  1746,6925.409000000002,95.593,548.181,546.368,0.0
47762,STARLINK-2180,PAYLOAD,2021-05-03 22:00:00,15.0637645,0.0001264,53.0522,255.9143,81.7428,181.3778,-0.00048745,-7.53e-05,0.0,0 STARLINK-2180,1 47762U 21017AS  21123.91667824 -.00007530  00000-0 -48745-3 0  9997,2 47762  53.0522 255.9143 0001264  81.7428 181.3778 15.06376450  1796,6925.420999999999,95.594,548.161,546.41,0.0
47762,STARLINK-2180,PAYLOAD,2021-05-04 04:00:00,15.06345934,0.0001246,53.0522,254.7907,91.3279,88.2885,0.0039951,0.00059643,0.0,0 STARLINK-2180,1 47762U 21017AS  21124.16667824  .00059643  00000-0  39951-2 0  9993,2 47762  53.0522 254.7907 0001246  91.3279  88.2885 15.06345934 10036,6925.514,95.596,548.242,546.516,0.0
47762,STARLINK-2180,PAYLOAD,2021-05-04 14:00:01,15.06330419,0.0001466,53.0523,252.92,90.9405,189.5011,0.013452,0.00205634,0.0,0 STARLINK-2180,1 47762U 21017AS  21124.58334491  .00205634  00000-0  13452-1 0  9990,2 47762  53.0523 252.9200 0001466  90.9405 189.5011 15.06330419  1895,6925.562,95.597,548.442,546.4119999999998,0.0
47762,STARLINK-2180,PAYLOAD,2021-05-04 16:00:00,15.06399834,0.0001416999999999,53.0521,252.5477,85.0339,287.5631,-0.00036273,-5.68e-05,0.0,0 STARLINK-2180,1 47762U 21017AS  21124.66667824 -.00005680  00000-0 -36273-3 0  9997,2 47762  53.0521 252.5477 0001417  85.0339 287.5631 15.06399834 10109,6925.349,95.592,548.195,546.2330000000002,0.0
47762,STARLINK-2180,PAYLOAD,2021-05-04 22:00:00,15.06411136,0.0001332,53.0517,251.425,83.8551,205.2466,-0.0011197,-0.00016925,0.0,0 STARLINK-2180,1 47762U 21017AS  21124.91667824 -.00016925  00000-0 -11197-2 0  9996,2 47762  53.0517 251.4250 0001332  83.8551 205.2466 15.06411136  1797,6925.314,95.591,548.102,546.257,0.0
47762,STARLINK-2180,PAYLOAD,2021-05-05 12:00:00,15.06376513,0.0001347,53.0511,248.8043,94.0588,120.2491,0.0058079,0.00087248,0.0,0 STARLINK-2180,1 47762U 21017AS  21125.50001157  .00087248  00000-0  58079-2 0  9997,2 47762  53.0511 248.8043 0001347  94.0588 120.2491 15.06376513 10233,6925.420999999999,95.594,548.2180000000002,546.3530000000002,0.0
47762,STARLINK-2180,PAYLOAD,2021-05-05 20:00:01,15.06392463,0.0001323,53.0517,247.3101,82.1678,140.82299999999995,0.0019301,0.00028578,0.0,0 STARLINK-2180,1 47762U 21017AS  21125.83334491  .00028578  00000-0  19301-2 0  9999,2 47762  53.0517 247.3101 0001323  82.1678 140.8230 15.06392463 10286,6925.371999999999,95.593,548.153,546.32,0.0
47762,STARLINK-2180,PAYLOAD,2021-05-05 22:00:01,15.06418595,0.0001296,53.0517,246.9353,83.7362,231.4812,-0.0015662,-0.00023545,0.0,0 STARLINK-2180,1 47762U 21017AS  21125.91668981 -.00023545  00000-0 -15662-2 0  9999,2 47762  53.0517 246.9353 0001296  83.7362 231.4812 15.06418595  1756,6925.292,95.591,548.054,546.259,0.0
47762,STARLINK-2180,PAYLOAD,2021-05-06 14:00:01,15.06415273,0.0001364,53.052,243.9425,85.3701,247.1674,-0.0012569,-0.00018961,0.0,0 STARLINK-2180,1 47762U 21017AS  21126.58334491 -.00018961  00000-0 -12569-2 0  9998,2 47762  53.0520 243.9425 0001364  85.3701 247.1674 15.06415273  1758,6925.302,95.591,548.111,546.222,0.0
47762,STARLINK-2180,PAYLOAD,2021-05-06 16:00:00,15.06402906,0.0001378,53.0522,243.5687,83.5144,341.1993,0.0004588999999999,6.561e-05,0.0,0 STARLINK-2180,1 47762U 21017AS  21126.66667824  .00006561  00000-0  45890-3 0  9991,2 47762  53.0522 243.5687 0001378  83.5144 341.1993 15.06402906 10402,6925.34,95.592,548.159,546.25,0.0
47762,STARLINK-2180,PAYLOAD,2021-05-06 22:00:00,15.06425894,0.0001283,53.0521,242.4458,82.6455,258.5779,-0.0018981,-0.00028461,0.0,0 STARLINK-2180,1 47762U 21017AS  21126.91667824 -.00028461  00000-0 -18981-2 0  9994,2 47762  53.0521 242.4458 0001283  82.6455 258.5779 15.06425894  1803,6925.269,95.59,548.023,546.246,0.0
47762,STARLINK-2180,PAYLOAD,2021-05-07 14:00:01,15.06411106,0.0001252999999999,53.0527,239.453,83.5205,275.1056,-0.0029002,-0.00043231,0.0,0 STARLINK-2180,1 47762U 21017AS  21127.58334491 -.00043231  00000-0 -29002-2 0  9997,2 47762  53.0527 239.4530 0001253  83.5205 275.1056 15.06411106  1743,6925.315,95.591,548.047,546.312,0.0
47762,STARLINK-2180,PAYLOAD,2021-05-07 20:00:01,15.0638855,0.0001156,53.0526,238.3308,79.4617,195.6721,0.00056914,8.203e-05,0.0,0 STARLINK-2180,1 47762U 21017AS  21127.83334491  .00008203  00000-0  56914-3 0  9996,2 47762  53.0526 238.3308 0001156  79.4617 195.6721 15.06388550 10589,6925.384,95.593,548.049,546.448,0.0
47762,STARLINK-2180,PAYLOAD,2021-05-07 22:00:01,15.06407288,0.0001144,53.0527,237.9561,81.4375,285.9215,-0.0021332,-0.00031919,0.0,0 STARLINK-2180,1 47762U 21017AS  21127.91668981 -.00031919  00000-0 -21332-2 0  9996,2 47762  53.0527 237.9561 0001144  81.4375 285.9215 15.06407288  1803,6925.326,95.592,547.9830000000002,546.399,0.0
47762,STARLINK-2180,PAYLOAD,2021-05-08 20:00:13,15.06419615,0.0001126,53.0527,233.8414,78.3734,223.5879,-0.0039017,-0.00057956,0.0,0 STARLINK-2180,1 47762U 21017AS  21128.83349537 -.00057956  00000-0 -39017-2 0  9999,2 47762  53.0527 233.8414 0001126  78.3734 223.5879 15.06419615 10732,6925.288000000001,95.591,547.933,546.374,0.0
47762,STARLINK-2180,PAYLOAD,2021-05-08 22:00:00,15.06427972,0.0001175,53.0528,233.4673,78.4858,314.8273,-0.0061772,-0.00091187,0.0,0 STARLINK-2180,1 47762U 21017AS  21128.91667824 -.00091187  00000-0 -61772-2 0  9997,2 47762  53.0528 233.4673 0001175  78.4858 314.8273 15.06427972  1904,6925.263000000001,95.59,547.942,546.314,0.0
